[{"OBJECT_NAME":"STARLINK-32130","OBJECT_ID":"2024-150C","EPOCH":"2026-03-09T22:07:52.765536","MEAN_MOTION":15.30187155,"ECCENTRICITY":9.705e-5,"INCLINATION":53.1606,"RA_OF_ASC_NODE":306.1857,"ARG_OF_PERICENTER":73.7092,"MEAN_ANOMALY":286.4015,"EPHEMERIS_TYPE":0,"CLASSIFICATION_TYPE":"U","NORAD_CAT_ID":60585,"ELEMENT_SET_NO":999,"REV_AT_EPOCH":8799,"BSTAR":3.235052e-5,"MEAN_MOTION_DOT":5.99e-6,"MEAN_MOTION_DDOT":0},{"OBJECT_NAME":"COSMOS 2251 DEB","OBJECT_ID":"1993-036BTX","EPOCH":"2026-02-28T17:34:44.973408","MEAN_MOTION":15.25753352,"ECCENTRICITY":0.00216382,"INCLINATION":73.9681,"RA_OF_ASC_NODE":229.3494,"ARG_OF_PERICENTER":13.6287,"MEAN_ANOMALY":346.5492,"EPHEMERIS_TYPE":0,"CLASSIFICATION_TYPE":"U","NORAD_CAT_ID":38487,"ELEMENT_SET_NO":999,"REV_AT_EPOCH":67986,"BSTAR":0.0024802785,"MEAN_MOTION_DOT":0.00064261,"MEAN_MOTION_DDOT":0}]
